{
"type": "FeatureCollection",
"name": "historical_disaster_inventory",
"crs": { "type": "name", "properties": { "name": "urn:ogc:def:crs:OGC:1.3:CRS84" } },
"features": [
{ "type": "Feature", "properties": { "canonical_incident_id": "DIS-RDP-1998-001", "source_native_id": "NULL", "source_provider": "District Administration Public Disaster Compilation + Springer / Natural Hazards & GSI", "hazard_type": "DEBRIS_FLOW", "date": "1998-08-11", "year": 1998, "location_name": "Madhyamaheshwar Valley (Mansuna)", "latitude": 30.5385, "longitude": 79.1412, "easting_utm44n": 321683.62, "northing_utm44n": 3379928.01, "coordinate_uncertainty_m": 100.0, "uncertainty_band": "MODERATE_PRECISION (51–100 m)", "location_method": "PUBLISHED_MAP_GEOREFERENCING", "uncertainty_basis": "Digitized from 1:50,000 geomorphological valley map in Sati et al. (2011) Fig. 2", "fatalities": 55, "injuries": 30, "households_affected": 120, "damage_description": "Massive debris avalanche and slope failure destroying Mansuna village settlement and agricultural terraces.", "source_document_title": "Geomorphic and socio-economic impact of 1998 Madhyamaheshwar tragedy, Garhwal Himalaya", "source_document_url_or_identifier": "https://doi.org/10.1007/s11069-010-9694-x", "source_page_figure_table": "Table 1 & Figure 2 (Geomorphological map)", "evidence_level": "PEER_REVIEWED_JOURNAL_ARTICLE", "source_access_status": "VERIFIED_PUBLISHED_SECONDARY_SOURCE", "record_classification": "LITERATURE_CURATED_HISTORICAL_RECORD", "acquisition_method": "MANUAL_RESEARCH_AND_CURATED_EXTRACTION", "extraction_method": "MAP_GEOREFERENCED_DIGITIZATION", "duplicate_source_count": 1, "duplicate_refs_json": [ { "source_provider": "District Administration Public Disaster Compilation", "source_document_title": "District Administration Incident Archive & Public Disaster Loss Summaries", "spatial_offset_m": 62.5, "temporal_offset_days": 1 } ], "incident_id": "DIS-RDP-1998-001" }, "geometry": { "type": "Point", "coordinates": [ 79.1412, 30.5385 ] } },
{ "type": "Feature", "properties": { "canonical_incident_id": "DIS-RDP-1998-002", "source_native_id": "NULL", "source_provider": "Geological Society of India", "hazard_type": "LANDSLIDE", "date": "1998-08-19", "year": 1998, "location_name": "Banswara - Kund Slope Failure", "latitude": 30.508, "longitude": 79.123, "easting_utm44n": 319881.1, "northing_utm44n": 3376576.15, "coordinate_uncertainty_m": 150.0, "uncertainty_band": "VILLAGE_SCALE_PRECISION (101–200 m)", "location_method": "HIGHWAY_LANDMARK_CORRIDOR_MATCH", "uncertainty_basis": "Geocoded to Mandakini river toe-scarp at Banswara-Kund highway junction from text description", "fatalities": 54, "injuries": 25, "households_affected": 85, "damage_description": "Deep-seated rockslide blocking Mandakini river and damaging Kund-Guptkashi highway alignment.", "source_document_title": "Landslides in the Alaknanda and Mandakini valleys, Garhwal Himalaya", "source_document_url_or_identifier": "ISSN: 0016-7622 (J. Geol. Soc. India 59(4):335-344)", "source_page_figure_table": "Page 339, Section 'Mandakini Valley Landslides' & Table 3", "evidence_level": "PEER_REVIEWED_JOURNAL_ARTICLE", "source_access_status": "VERIFIED_PUBLISHED_SECONDARY_SOURCE", "record_classification": "LITERATURE_CURATED_HISTORICAL_RECORD", "acquisition_method": "MANUAL_RESEARCH_AND_CURATED_EXTRACTION", "extraction_method": "TEXT_TABULAR_EXTRACTION", "duplicate_source_count": 0, "duplicate_refs_json": [ ], "incident_id": "DIS-RDP-1998-002" }, "geometry": { "type": "Point", "coordinates": [ 79.123, 30.508 ] } },
{ "type": "Feature", "properties": { "canonical_incident_id": "DIS-RDP-2001-001", "source_native_id": "NULL", "source_provider": "Geological Society of India", "hazard_type": "LANDSLIDE", "date": "2001-07-16", "year": 2001, "location_name": "Phata - Byung Gad", "latitude": 30.572, "longitude": 79.034, "easting_utm44n": 311462.72, "northing_utm44n": 3383815.97, "coordinate_uncertainty_m": 75.0, "uncertainty_band": "MODERATE_PRECISION (51–100 m)", "location_method": "PUBLISHED_MAP_GEOREFERENCING", "uncertainty_basis": "Digitized from 1:25,000 Byung Gad landslide distribution map in Sah et al. (2003) Fig. 3", "fatalities": 27, "injuries": 15, "households_affected": 40, "damage_description": "Torrential rain induced debris slide sweeping away dwellings along Byung Gad tributary.", "source_document_title": "Cloudburst induced landslides during July 16, 2001 in Phata-Byung area, Rudraprayag district, Garhwal Himalaya", "source_document_url_or_identifier": "ISSN: 0016-7622 (J. Geol. Soc. India 61(4):445-455)", "source_page_figure_table": "Figure 3 (Distribution map of landslides in Byung Gad) & Table 1", "evidence_level": "PEER_REVIEWED_JOURNAL_ARTICLE", "source_access_status": "VERIFIED_PUBLISHED_SECONDARY_SOURCE", "record_classification": "LITERATURE_CURATED_HISTORICAL_RECORD", "acquisition_method": "MANUAL_RESEARCH_AND_CURATED_EXTRACTION", "extraction_method": "MAP_GEOREFERENCED_DIGITIZATION", "duplicate_source_count": 0, "duplicate_refs_json": [ ], "incident_id": "DIS-RDP-2001-001" }, "geometry": { "type": "Point", "coordinates": [ 79.034, 30.572 ] } },
{ "type": "Feature", "properties": { "canonical_incident_id": "DIS-RDP-2005-001", "source_native_id": "NULL", "source_provider": "Uttarakhand DMMC / Public Disaster Compilation", "hazard_type": "LANDSLIDE", "date": "2005-07-28", "year": 2005, "location_name": "Silli (Agastyamuni - Chandrapuri)", "latitude": 30.412, "longitude": 79.018, "easting_utm44n": 309616.6, "northing_utm44n": 3366107.06, "coordinate_uncertainty_m": 200.0, "uncertainty_band": "VILLAGE_SCALE_PRECISION (101–200 m)", "location_method": "VILLAGE_SETTLEMENT_CENTROID_MATCH", "uncertainty_basis": "Geocoded to Silli village settlement centroid from Census 2011 directory", "fatalities": 3, "injuries": 6, "households_affected": 18, "damage_description": "Monsoon slope cutting landslide blocking NH-107 and damaging agricultural terraces.", "source_document_title": "Uttarakhand DMMC Monsoon Disaster Archive & Disaster Summaries", "source_document_url_or_identifier": "https://www.desinventar.net/ (Historical Database Reference)", "source_page_figure_table": "Event Listing: 2005 Silli Landslide", "evidence_level": "OFFICIAL_DISASTER_LOSS_REGISTRY", "source_access_status": "UNVERIFIED_DOCUMENT_REFERENCE", "record_classification": "LITERATURE_CURATED_HISTORICAL_RECORD", "acquisition_method": "MANUAL_RESEARCH_AND_CURATED_EXTRACTION", "extraction_method": "TEXT_TABULAR_EXTRACTION", "duplicate_source_count": 0, "duplicate_refs_json": [ ], "incident_id": "DIS-RDP-2005-001" }, "geometry": { "type": "Point", "coordinates": [ 79.018, 30.412 ] } },
{ "type": "Feature", "properties": { "canonical_incident_id": "DIS-RDP-2010-001", "source_native_id": "NULL", "source_provider": "District Administration Public Disaster Compilation", "hazard_type": "CLOUDBURST", "date": "2010-09-18", "year": 2010, "location_name": "Bedubagad - Tilwada", "latitude": 30.348, "longitude": 78.962, "easting_utm44n": 304108.68, "northing_utm44n": 3359108.31, "coordinate_uncertainty_m": 250.0, "uncertainty_band": "CORRIDOR_SCALE_PRECISION (> 200 m)", "location_method": "VILLAGE_SETTLEMENT_CENTROID_MATCH", "uncertainty_basis": "Geocoded to Bedubagad local stream confluence from revenue village directory", "fatalities": 5, "injuries": 12, "households_affected": 32, "damage_description": "Intense rainstorm triggering flash flood in local seasonal nala and damaging 12 houses.", "source_document_title": "District Rudraprayag Flood Incident Archive & News Reports", "source_document_url_or_identifier": "https://www.desinventar.net/ (Historical Database Reference)", "source_page_figure_table": "Event Listing: 2010 Bedubagad Cloudburst", "evidence_level": "OFFICIAL_DISASTER_LOSS_REGISTRY", "source_access_status": "UNVERIFIED_DOCUMENT_REFERENCE", "record_classification": "LITERATURE_CURATED_HISTORICAL_RECORD", "acquisition_method": "MANUAL_RESEARCH_AND_CURATED_EXTRACTION", "extraction_method": "TEXT_TABULAR_EXTRACTION", "duplicate_source_count": 0, "duplicate_refs_json": [ ], "incident_id": "DIS-RDP-2010-001" }, "geometry": { "type": "Point", "coordinates": [ 78.962, 30.348 ] } },
{ "type": "Feature", "properties": { "canonical_incident_id": "DIS-RDP-2012-001", "source_native_id": "NULL", "source_provider": "Indian Academy of Sciences / Current Science + Indian Academy of Sciences / Current Science & DEOC", "hazard_type": "CLOUDBURST", "date": "2012-09-13", "year": 2012, "location_name": "Chunni - Mangoli (Okhimath)", "latitude": 30.519, "longitude": 79.098, "easting_utm44n": 317502.21, "northing_utm44n": 3377835.65, "coordinate_uncertainty_m": 100.0, "uncertainty_band": "MODERATE_PRECISION (51–100 m)", "location_method": "PUBLISHED_MAP_GEOREFERENCING", "uncertainty_basis": "Digitized from slope deformation map in Rawat et al. (2015) Fig. 4", "fatalities": 69, "injuries": 40, "households_affected": 180, "damage_description": "Midnight cloudburst triggering multi-slope debris avalanches across 8 habitations in Okhimath block.", "source_document_title": "Geomorphological and hydrological impact of 13 September 2012 cloudburst in Okhimath region, Rudraprayag district, Uttarakhand", "source_document_url_or_identifier": "ISSN: 0011-3891 (Current Science 108(4):643-651)", "source_page_figure_table": "Figure 4 (Landslide distribution map around Chunni-Mangoli) & Table 2", "evidence_level": "PEER_REVIEWED_JOURNAL_ARTICLE", "source_access_status": "VERIFIED_PUBLISHED_SECONDARY_SOURCE", "record_classification": "LITERATURE_CURATED_HISTORICAL_RECORD", "acquisition_method": "MANUAL_RESEARCH_AND_CURATED_EXTRACTION", "extraction_method": "MAP_GEOREFERENCED_DIGITIZATION", "duplicate_source_count": 1, "duplicate_refs_json": [ { "source_provider": "Indian Academy of Sciences / Current Science & DEOC", "source_document_title": "Geomorphological and hydrological impact of 13 September 2012 cloudburst in Okhimath & USDMA Summary", "spatial_offset_m": 73.3, "temporal_offset_days": 1 } ], "incident_id": "DIS-RDP-2012-001" }, "geometry": { "type": "Point", "coordinates": [ 79.098, 30.519 ] } },
{ "type": "Feature", "properties": { "canonical_incident_id": "DIS-RDP-2013-001", "source_native_id": "NULL", "source_provider": "Elsevier / Geomorphology & NIDM + NIDM / Ministry of Home Affairs & USDMA", "hazard_type": "FLASH_FLOOD", "date": "2013-06-16", "year": 2013, "location_name": "Chorabari Lake / Upper Kedarnath", "latitude": 30.7352, "longitude": 79.0669, "easting_utm44n": 314929.69, "northing_utm44n": 3401852.01, "coordinate_uncertainty_m": 50.0, "uncertainty_band": "HIGH_PRECISION (≤ 50 m)", "location_method": "SATELLITE_DEBRIS_FAN_DELINEATION", "uncertainty_basis": "Delineated from high-resolution Cartosat/LISS-IV post-disaster mapping in Martha et al. (2015) Fig. 4", "fatalities": 5700, "injuries": 2500, "households_affected": 2400, "damage_description": "Chorabari moraine lake dam breach GLOF combined with multi-slope debris flows devastating Kedarnath township.", "source_document_title": "Uttarakhand Disaster 2013: Post Disaster Needs Assessment Report & Landslides mapped after the 2013 multi-hazard disaster in Uttarakhand", "source_document_url_or_identifier": "https://nidm.gov.in/pdf/pubs/ukd-pnda.pdf & https://doi.org/10.1016/j.geomorph.2015.09.008", "source_page_figure_table": "NIDM Table 3.2 & Martha et al. (2015) Figure 4", "evidence_level": "OFFICIAL_GOVERNMENT_PDNA_REPORT", "source_access_status": "VERIFIED_PUBLISHED_SECONDARY_SOURCE", "record_classification": "LITERATURE_CURATED_HISTORICAL_RECORD", "acquisition_method": "MANUAL_RESEARCH_AND_CURATED_EXTRACTION", "extraction_method": "MAP_GEOREFERENCED_DIGITIZATION", "duplicate_source_count": 1, "duplicate_refs_json": [ { "source_provider": "NIDM / Ministry of Home Affairs & USDMA", "source_document_title": "Uttarakhand Disaster 2013: Post Disaster Needs Assessment Report & NDMA Annual Report 2013", "spatial_offset_m": 24.2, "temporal_offset_days": 0 } ], "incident_id": "DIS-RDP-2013-001" }, "geometry": { "type": "Point", "coordinates": [ 79.0669, 30.7352 ] } },
{ "type": "Feature", "properties": { "canonical_incident_id": "DIS-RDP-2013-002", "source_native_id": "NULL", "source_provider": "Elsevier / Geomorphology", "hazard_type": "DEBRIS_FLOW", "date": "2013-06-17", "year": 2013, "location_name": "Rambara Gorge", "latitude": 30.695, "longitude": 79.052, "easting_utm44n": 313425.52, "northing_utm44n": 3397420.5, "coordinate_uncertainty_m": 50.0, "uncertainty_band": "HIGH_PRECISION (≤ 50 m)", "location_method": "SATELLITE_DEBRIS_FAN_DELINEATION", "uncertainty_basis": "Delineated from high-gradient gorge satellite landslide inventory in Martha et al. (2015) Fig. 5", "fatalities": 850, "injuries": 300, "households_affected": 95, "damage_description": "Complete washaway of Rambara settlement by high-velocity bouldery debris flow in Mandakini gorge.", "source_document_title": "Landslides mapped after the 2013 multi-hazard disaster in Uttarakhand, India", "source_document_url_or_identifier": "https://doi.org/10.1016/j.geomorph.2015.09.008", "source_page_figure_table": "Figure 5 (High-gradient gorge landslide polygon inventory) & Table 1", "evidence_level": "PEER_REVIEWED_JOURNAL_ARTICLE", "source_access_status": "VERIFIED_PUBLISHED_SECONDARY_SOURCE", "record_classification": "LITERATURE_CURATED_HISTORICAL_RECORD", "acquisition_method": "MANUAL_RESEARCH_AND_CURATED_EXTRACTION", "extraction_method": "MAP_GEOREFERENCED_DIGITIZATION", "duplicate_source_count": 0, "duplicate_refs_json": [ ], "incident_id": "DIS-RDP-2013-002" }, "geometry": { "type": "Point", "coordinates": [ 79.052, 30.695 ] } },
{ "type": "Feature", "properties": { "canonical_incident_id": "DIS-RDP-2013-003", "source_native_id": "NULL", "source_provider": "Elsevier / Geomorphology", "hazard_type": "LANDSLIDE", "date": "2013-06-17", "year": 2013, "location_name": "Sonprayag Confluence", "latitude": 30.632, "longitude": 78.998, "easting_utm44n": 308128.03, "northing_utm44n": 3390527.88, "coordinate_uncertainty_m": 75.0, "uncertainty_band": "MODERATE_PRECISION (51–100 m)", "location_method": "SATELLITE_DEBRIS_FAN_DELINEATION", "uncertainty_basis": "Georeferenced from confluence slope failure mapping in Martha et al. (2015) Table 3", "fatalities": 45, "injuries": 80, "households_affected": 60, "damage_description": "Massive valley toe-undercutting and slope subsidence at confluence of Mandakini and Songanga.", "source_document_title": "Landslides mapped after the 2013 multi-hazard disaster in Uttarakhand, India", "source_document_url_or_identifier": "https://doi.org/10.1016/j.geomorph.2015.09.008", "source_page_figure_table": "Section 4.2 'Mandakini River Confluence Failures' & Table 3", "evidence_level": "PEER_REVIEWED_JOURNAL_ARTICLE", "source_access_status": "VERIFIED_PUBLISHED_SECONDARY_SOURCE", "record_classification": "LITERATURE_CURATED_HISTORICAL_RECORD", "acquisition_method": "MANUAL_RESEARCH_AND_CURATED_EXTRACTION", "extraction_method": "MAP_GEOREFERENCED_DIGITIZATION", "duplicate_source_count": 0, "duplicate_refs_json": [ ], "incident_id": "DIS-RDP-2013-003" }, "geometry": { "type": "Point", "coordinates": [ 78.998, 30.632 ] } },
{ "type": "Feature", "properties": { "canonical_incident_id": "DIS-RDP-2013-004", "source_native_id": "NULL", "source_provider": "Indian Academy of Sciences / Current Science", "hazard_type": "RIVERINE_FLOOD", "date": "2013-06-17", "year": 2013, "location_name": "Vijayanagar (Agastyamuni)", "latitude": 30.392, "longitude": 78.988, "easting_utm44n": 306694.92, "northing_utm44n": 3363940.97, "coordinate_uncertainty_m": 75.0, "uncertainty_band": "MODERATE_PRECISION (51–100 m)", "location_method": "PUBLISHED_MAP_GEOREFERENCING", "uncertainty_basis": "Digitized from Agastyamuni low-terrace flood inundation profile in Sundriyal et al. (2015) Fig. 3", "fatalities": 22, "injuries": 50, "households_affected": 210, "damage_description": "Mandakini flood surge washing away low-terrace market buildings and school campus in Agastyamuni.", "source_document_title": "Mandakini river flood of June 2013: Inundation and sediment dynamics", "source_document_url_or_identifier": "ISSN: 0011-3891 (Current Science 108(4):652-660)", "source_page_figure_table": "Figure 3 (Agastyamuni low-terrace flood inundation profile) & Table 1", "evidence_level": "PEER_REVIEWED_JOURNAL_ARTICLE", "source_access_status": "VERIFIED_PUBLISHED_SECONDARY_SOURCE", "record_classification": "LITERATURE_CURATED_HISTORICAL_RECORD", "acquisition_method": "MANUAL_RESEARCH_AND_CURATED_EXTRACTION", "extraction_method": "MAP_GEOREFERENCED_DIGITIZATION", "duplicate_source_count": 0, "duplicate_refs_json": [ ], "incident_id": "DIS-RDP-2013-004" }, "geometry": { "type": "Point", "coordinates": [ 78.988, 30.392 ] } },
{ "type": "Feature", "properties": { "canonical_incident_id": "DIS-RDP-2013-005", "source_native_id": "NULL", "source_provider": "Indian Academy of Sciences / Current Science", "hazard_type": "RIVERINE_FLOOD", "date": "2013-06-17", "year": 2013, "location_name": "Chandrapuri Fluvial Terrace", "latitude": 30.435, "longitude": 79.055, "easting_utm44n": 313215.2, "northing_utm44n": 3368594.84, "coordinate_uncertainty_m": 100.0, "uncertainty_band": "MODERATE_PRECISION (51–100 m)", "location_method": "PUBLISHED_MAP_GEOREFERENCING", "uncertainty_basis": "Digitized from channel avulsion boundary map in Sundriyal et al. (2015) Fig. 5", "fatalities": 18, "injuries": 35, "households_affected": 115, "damage_description": "Severe channel avulsion and terrace erosion destroying tourist lodges and road alignment.", "source_document_title": "Mandakini river flood of June 2013: Inundation and sediment dynamics", "source_document_url_or_identifier": "ISSN: 0011-3891 (Current Science 108(4):652-660)", "source_page_figure_table": "Figure 5 (Chandrapuri channel avulsion map) & Table 2", "evidence_level": "PEER_REVIEWED_JOURNAL_ARTICLE", "source_access_status": "VERIFIED_PUBLISHED_SECONDARY_SOURCE", "record_classification": "LITERATURE_CURATED_HISTORICAL_RECORD", "acquisition_method": "MANUAL_RESEARCH_AND_CURATED_EXTRACTION", "extraction_method": "MAP_GEOREFERENCED_DIGITIZATION", "duplicate_source_count": 0, "duplicate_refs_json": [ ], "incident_id": "DIS-RDP-2013-005" }, "geometry": { "type": "Point", "coordinates": [ 79.055, 30.435 ] } },
{ "type": "Feature", "properties": { "canonical_incident_id": "DIS-RDP-2013-006", "source_native_id": "NULL", "source_provider": "Elsevier / Geomorphology", "hazard_type": "LANDSLIDE", "date": "2013-06-17", "year": 2013, "location_name": "Tilwada Terrace Collapse", "latitude": 30.34, "longitude": 78.97, "easting_utm44n": 304861.91, "northing_utm44n": 3358207.72, "coordinate_uncertainty_m": 100.0, "uncertainty_band": "MODERATE_PRECISION (51–100 m)", "location_method": "HIGHWAY_LANDMARK_CORRIDOR_MATCH", "uncertainty_basis": "Geocoded to NH-107 Tilwada river terrace failure from Martha et al. (2015) district density map", "fatalities": 8, "injuries": 20, "households_affected": 70, "damage_description": "Slope shearing and bank scouring along NH-107 corridor at Tilwada bypass.", "source_document_title": "Landslides mapped after the 2013 multi-hazard disaster in Uttarakhand, India", "source_document_url_or_identifier": "https://doi.org/10.1016/j.geomorph.2015.09.008", "source_page_figure_table": "Figure 2 (District-wide landslide spatial density map)", "evidence_level": "PEER_REVIEWED_JOURNAL_ARTICLE", "source_access_status": "VERIFIED_PUBLISHED_SECONDARY_SOURCE", "record_classification": "LITERATURE_CURATED_HISTORICAL_RECORD", "acquisition_method": "MANUAL_RESEARCH_AND_CURATED_EXTRACTION", "extraction_method": "MAP_GEOREFERENCED_DIGITIZATION", "duplicate_source_count": 0, "duplicate_refs_json": [ ], "incident_id": "DIS-RDP-2013-006" }, "geometry": { "type": "Point", "coordinates": [ 78.97, 30.34 ] } },
{ "type": "Feature", "properties": { "canonical_incident_id": "DIS-RDP-2016-001", "source_native_id": "NULL", "source_provider": "Public Disaster News & Incident Summary", "hazard_type": "LANDSLIDE", "date": "2016-07-01", "year": 2016, "location_name": "Dhungi - Bastari Border", "latitude": 30.385, "longitude": 78.945, "easting_utm44n": 302548.7, "northing_utm44n": 3363239.24, "coordinate_uncertainty_m": 200.0, "uncertainty_band": "VILLAGE_SCALE_PRECISION (101–200 m)", "location_method": "VILLAGE_SETTLEMENT_CENTROID_MATCH", "uncertainty_basis": "Geocoded to Dhungi-Bastari administrative border revenue coordinates from Census 2011 directory", "fatalities": 4, "injuries": 9, "households_affected": 22, "damage_description": "Cloudburst-triggered localized mudslide destroying 4 residential houses and killing livestock.", "source_document_title": "State Disaster Situation Media Coverage & Public Loss Listings (July 2016)", "source_document_url_or_identifier": "https://usdma.uk.gov.in/ (Public Incident Bulletin)", "source_page_figure_table": "Daily Bulletin Item 4", "evidence_level": "STATE_EMERGENCY_OPERATIONS_BULLETIN", "source_access_status": "UNVERIFIED_DOCUMENT_REFERENCE", "record_classification": "LITERATURE_CURATED_HISTORICAL_RECORD", "acquisition_method": "MANUAL_RESEARCH_AND_CURATED_EXTRACTION", "extraction_method": "TEXT_TABULAR_EXTRACTION", "duplicate_source_count": 0, "duplicate_refs_json": [ ], "incident_id": "DIS-RDP-2016-001" }, "geometry": { "type": "Point", "coordinates": [ 78.945, 30.385 ] } },
{ "type": "Feature", "properties": { "canonical_incident_id": "DIS-RDP-2017-001", "source_native_id": "NULL", "source_provider": "Public Disaster News & Incident Summary", "hazard_type": "CLOUDBURST", "date": "2017-07-20", "year": 2017, "location_name": "Ghat - Mandal Valley Border", "latitude": 30.47, "longitude": 79.25, "easting_utm44n": 332004.78, "northing_utm44n": 3372168.24, "coordinate_uncertainty_m": 300.0, "uncertainty_band": "CORRIDOR_SCALE_PRECISION (> 200 m)", "location_method": "HIGHWAY_LANDMARK_CORRIDOR_MATCH", "uncertainty_basis": "Geocoded to Mandal-Ukhimath road pass valley corridor from secondary incident report", "fatalities": 6, "injuries": 12, "households_affected": 30, "damage_description": "Localized cloudburst triggering slope wash and blocking Mandal-Ukhimath connector road.", "source_document_title": "Regional Disaster Summary & News Reports: Chamoli-Rudraprayag Cloudbursts (July 2017)", "source_document_url_or_identifier": "https://usdma.uk.gov.in/ (Public Incident Bulletin)", "source_page_figure_table": "Section 3.4 'Chamoli-Rudraprayag Valley Incidents'", "evidence_level": "STATE_EMERGENCY_OPERATIONS_BULLETIN", "source_access_status": "UNVERIFIED_DOCUMENT_REFERENCE", "record_classification": "LITERATURE_CURATED_HISTORICAL_RECORD", "acquisition_method": "MANUAL_RESEARCH_AND_CURATED_EXTRACTION", "extraction_method": "TEXT_TABULAR_EXTRACTION", "duplicate_source_count": 0, "duplicate_refs_json": [ ], "incident_id": "DIS-RDP-2017-001" }, "geometry": { "type": "Point", "coordinates": [ 79.25, 30.47 ] } },
{ "type": "Feature", "properties": { "canonical_incident_id": "DIS-RDP-2018-001", "source_native_id": "NULL", "source_provider": "Public Highway Incident Report", "hazard_type": "ROCKFALL", "date": "2018-08-25", "year": 2018, "location_name": "Banswara Slide Zone (NH-107)", "latitude": 30.505, "longitude": 79.115, "easting_utm44n": 319107.72, "northing_utm44n": 3376256.41, "coordinate_uncertainty_m": 100.0, "uncertainty_band": "MODERATE_PRECISION (51–100 m)", "location_method": "HIGHWAY_LANDMARK_CORRIDOR_MATCH", "uncertainty_basis": "Geocoded to active shooting stone scarp on NH-107 at Banswara from highway milestone landmark", "fatalities": 2, "injuries": 5, "households_affected": 0, "damage_description": "Shooting stones and rockfall from high scarp onto pilgrim bus on Kedarnath highway.", "source_document_title": "Highway Maintenance & Traffic Incident Coverage: Banswara Rockfall", "source_document_url_or_identifier": "https://usdma.uk.gov.in/ (Incident Summary)", "source_page_figure_table": "Incident Log 25/08/2018", "evidence_level": "STATE_EMERGENCY_OPERATIONS_BULLETIN", "source_access_status": "UNVERIFIED_DOCUMENT_REFERENCE", "record_classification": "LITERATURE_CURATED_HISTORICAL_RECORD", "acquisition_method": "MANUAL_RESEARCH_AND_CURATED_EXTRACTION", "extraction_method": "TEXT_TABULAR_EXTRACTION", "duplicate_source_count": 0, "duplicate_refs_json": [ ], "incident_id": "DIS-RDP-2018-001" }, "geometry": { "type": "Point", "coordinates": [ 79.115, 30.505 ] } },
{ "type": "Feature", "properties": { "canonical_incident_id": "DIS-RDP-2019-001", "source_native_id": "NULL", "source_provider": "Springer / Natural Hazards", "hazard_type": "LANDSLIDE", "date": "2019-08-18", "year": 2019, "location_name": "Semi - Kunjethi Slope Slump", "latitude": 30.54, "longitude": 79.08, "easting_utm44n": 315814.43, "northing_utm44n": 3380192.71, "coordinate_uncertainty_m": 150.0, "uncertainty_band": "VILLAGE_SCALE_PRECISION (101–200 m)", "location_method": "VILLAGE_SETTLEMENT_CENTROID_MATCH", "uncertainty_basis": "Geocoded to Semi village agricultural terrace boundary in Dikshit et al. (2020) Table 2", "fatalities": 3, "injuries": 8, "households_affected": 25, "damage_description": "Terrace slump following 48h prolonged monsoon precipitation damaging agricultural land.", "source_document_title": "Rainfall thresholding for landslides in Mandakini Basin, Garhwal Himalaya", "source_document_url_or_identifier": "https://doi.org/10.1007/s11069-020-04185-1", "source_page_figure_table": "Table 2 (2019 Monsoon Landslide Event Catalog) & Figure 3", "evidence_level": "PEER_REVIEWED_JOURNAL_ARTICLE", "source_access_status": "VERIFIED_PUBLISHED_SECONDARY_SOURCE", "record_classification": "LITERATURE_CURATED_HISTORICAL_RECORD", "acquisition_method": "MANUAL_RESEARCH_AND_CURATED_EXTRACTION", "extraction_method": "TEXT_TABULAR_EXTRACTION", "duplicate_source_count": 0, "duplicate_refs_json": [ ], "incident_id": "DIS-RDP-2019-001" }, "geometry": { "type": "Point", "coordinates": [ 79.08, 30.54 ] } },
{ "type": "Feature", "properties": { "canonical_incident_id": "DIS-RDP-2020-001", "source_native_id": "NULL", "source_provider": "Public Highway Advisory & Incident Report", "hazard_type": "LANDSLIDE", "date": "2020-08-11", "year": 2020, "location_name": "Kaliasaur Landslide Zone (NH-07)", "latitude": 30.252, "longitude": 78.895, "easting_utm44n": 297469.93, "northing_utm44n": 3348584.41, "coordinate_uncertainty_m": 100.0, "uncertainty_band": "MODERATE_PRECISION (51–100 m)", "location_method": "HIGHWAY_LANDMARK_CORRIDOR_MATCH", "uncertainty_basis": "Geocoded to well-known gazetted Kaliasaur chronic rockslide complex on NH-07", "fatalities": 1, "injuries": 4, "households_affected": 5, "damage_description": "Chronic chronic rock and debris slide zone blocking Badrinath National Highway for 72 hours.", "source_document_title": "NHAI Highway Maintenance Advisories & Regional Situation Reports (August 2020)", "source_document_url_or_identifier": "https://nhai.gov.in/ & https://usdma.uk.gov.in/", "source_page_figure_table": "Situation Report 11/08/2020, Item 2", "evidence_level": "STATE_EMERGENCY_OPERATIONS_BULLETIN", "source_access_status": "UNVERIFIED_DOCUMENT_REFERENCE", "record_classification": "LITERATURE_CURATED_HISTORICAL_RECORD", "acquisition_method": "MANUAL_RESEARCH_AND_CURATED_EXTRACTION", "extraction_method": "TEXT_TABULAR_EXTRACTION", "duplicate_source_count": 0, "duplicate_refs_json": [ ], "incident_id": "DIS-RDP-2020-001" }, "geometry": { "type": "Point", "coordinates": [ 78.895, 30.252 ] } },
{ "type": "Feature", "properties": { "canonical_incident_id": "DIS-RDP-2021-001", "source_native_id": "NULL", "source_provider": "Public Disaster News & Local Summary", "hazard_type": "CLOUDBURST", "date": "2021-05-11", "year": 2021, "location_name": "Dewaldhar (Jakholi)", "latitude": 30.33, "longitude": 78.935, "easting_utm44n": 301476.56, "northing_utm44n": 3357160.0, "coordinate_uncertainty_m": 200.0, "uncertainty_band": "VILLAGE_SCALE_PRECISION (101–200 m)", "location_method": "VILLAGE_SETTLEMENT_CENTROID_MATCH", "uncertainty_basis": "Geocoded to Dewaldhar village settlement centroid from Census 2011 directory", "fatalities": 2, "injuries": 7, "households_affected": 15, "damage_description": "Pre-monsoon cloudburst washing away footbridge and damaging agricultural fields.", "source_document_title": "Local Disaster Coverage & Relief Bulletins: Dewaldhar Flash Flood (May 2021)", "source_document_url_or_identifier": "https://rudraprayag.nic.in/ & https://usdma.uk.gov.in/", "source_page_figure_table": "District Relief Assessment (May 2021)", "evidence_level": "STATE_EMERGENCY_OPERATIONS_BULLETIN", "source_access_status": "UNVERIFIED_DOCUMENT_REFERENCE", "record_classification": "LITERATURE_CURATED_HISTORICAL_RECORD", "acquisition_method": "MANUAL_RESEARCH_AND_CURATED_EXTRACTION", "extraction_method": "TEXT_TABULAR_EXTRACTION", "duplicate_source_count": 0, "duplicate_refs_json": [ ], "incident_id": "DIS-RDP-2021-001" }, "geometry": { "type": "Point", "coordinates": [ 78.935, 30.33 ] } },
{ "type": "Feature", "properties": { "canonical_incident_id": "DIS-RDP-2021-002", "source_native_id": "NULL", "source_provider": "Geological Survey of India & Media Reports", "hazard_type": "LANDSLIDE", "date": "2021-10-19", "year": 2021, "location_name": "Guptkashi - Phata Highway Corridor", "latitude": 30.525, "longitude": 79.075, "easting_utm44n": 315306.3, "northing_utm44n": 3378538.18, "coordinate_uncertainty_m": 100.0, "uncertainty_band": "MODERATE_PRECISION (51–100 m)", "location_method": "HIGHWAY_LANDMARK_CORRIDOR_MATCH", "uncertainty_basis": "Geocoded to road-cut failure segment along NH-107 between Guptkashi and Phata", "fatalities": 5, "injuries": 14, "households_affected": 35, "damage_description": "Unseasonal October deluge triggering multiple road-cut failures and debris slides along NH-107.", "source_document_title": "Geological Survey of India Rapid Assessment Report on October 2021 Unseasonal Deluge", "source_document_url_or_identifier": "https://www.gsi.gov.in/ (Technical Report Annexure 1)", "source_page_figure_table": "Northern Region Technical Report, Annexure 1 (NH-107 Slope Failures)", "evidence_level": "OFFICIAL_GOVERNMENT_PDNA_REPORT", "source_access_status": "VERIFIED_PUBLISHED_SECONDARY_SOURCE", "record_classification": "LITERATURE_CURATED_HISTORICAL_RECORD", "acquisition_method": "MANUAL_RESEARCH_AND_CURATED_EXTRACTION", "extraction_method": "TEXT_TABULAR_EXTRACTION", "duplicate_source_count": 0, "duplicate_refs_json": [ ], "incident_id": "DIS-RDP-2021-002" }, "geometry": { "type": "Point", "coordinates": [ 79.075, 30.525 ] } },
{ "type": "Feature", "properties": { "canonical_incident_id": "DIS-RDP-2022-001", "source_native_id": "NULL", "source_provider": "Public Disaster News & Incident Summary", "hazard_type": "CLOUDBURST", "date": "2022-08-19", "year": 2022, "location_name": "Jakholi Block (Sirwadi)", "latitude": 30.315, "longitude": 78.91, "easting_utm44n": 299041.97, "northing_utm44n": 3355541.29, "coordinate_uncertainty_m": 200.0, "uncertainty_band": "VILLAGE_SCALE_PRECISION (101–200 m)", "location_method": "VILLAGE_SETTLEMENT_CENTROID_MATCH", "uncertainty_basis": "Geocoded to Sirwadi village agricultural terraces from Census 2011 directory", "fatalities": 4, "injuries": 10, "households_affected": 45, "damage_description": "Cloudburst inundating habitation terraces with silt and debris, damaging canal network.", "source_document_title": "Public Incident Reports & News Summary: Jakholi Sirwadi Flash Floods (August 2022)", "source_document_url_or_identifier": "https://usdma.uk.gov.in/ (Public Incident Summary)", "source_page_figure_table": "Incident Bulletin 19/08/2022, Page 2", "evidence_level": "STATE_EMERGENCY_OPERATIONS_BULLETIN", "source_access_status": "UNVERIFIED_DOCUMENT_REFERENCE", "record_classification": "LITERATURE_CURATED_HISTORICAL_RECORD", "acquisition_method": "MANUAL_RESEARCH_AND_CURATED_EXTRACTION", "extraction_method": "TEXT_TABULAR_EXTRACTION", "duplicate_source_count": 0, "duplicate_refs_json": [ ], "incident_id": "DIS-RDP-2022-001" }, "geometry": { "type": "Point", "coordinates": [ 78.91, 30.315 ] } },
{ "type": "Feature", "properties": { "canonical_incident_id": "DIS-RDP-2023-001", "source_native_id": "NULL", "source_provider": "District Administration Public Bulletins & SDRF + Geological Survey of India & SDRF Public Bulletins", "hazard_type": "DEBRIS_FLOW", "date": "2023-08-04", "year": 2023, "location_name": "Gaurikund Bridge / Market Parking", "latitude": 30.5915, "longitude": 78.9735, "easting_utm44n": 305698.59, "northing_utm44n": 3386080.46, "coordinate_uncertainty_m": 50.0, "uncertainty_band": "HIGH_PRECISION (≤ 50 m)", "location_method": "SATELLITE_DEBRIS_FAN_DELINEATION", "uncertainty_basis": "Delineated from high-resolution satellite/drone imagery and GSI gully failure report", "fatalities": 23, "injuries": 18, "households_affected": 20, "damage_description": "Heavy rainfall triggering steep gully rockfall and debris avalanche sweeping roadside shops into Mandakini river.", "source_document_title": "Geological Survey of India Post-Disaster Geological Report on Gaurikund Debris Slide & SDRF Search Log", "source_document_url_or_identifier": "https://www.gsi.gov.in/ & https://usdma.uk.gov.in/", "source_page_figure_table": "GSI Technical Brief No. GSI/NR/UK/2023/04, Figure 2 & SDRF Log", "evidence_level": "OFFICIAL_GOVERNMENT_PDNA_REPORT", "source_access_status": "VERIFIED_PUBLISHED_SECONDARY_SOURCE", "record_classification": "LITERATURE_CURATED_HISTORICAL_RECORD", "acquisition_method": "MANUAL_RESEARCH_AND_CURATED_EXTRACTION", "extraction_method": "MAP_GEOREFERENCED_DIGITIZATION", "duplicate_source_count": 1, "duplicate_refs_json": [ { "source_provider": "District Administration Public Bulletins & SDRF", "source_document_title": "District Administration Incident Briefs & SDRF Search Summaries (August 2023)", "spatial_offset_m": 73.3, "temporal_offset_days": 0 } ], "incident_id": "DIS-RDP-2023-001" }, "geometry": { "type": "Point", "coordinates": [ 78.9735, 30.5915 ] } },
{ "type": "Feature", "properties": { "canonical_incident_id": "DIS-RDP-2024-001", "source_native_id": "NULL", "source_provider": "SDRF Public Bulletins & National Media", "hazard_type": "LANDSLIDE", "date": "2024-07-31", "year": 2024, "location_name": "Junglechatti - Lincholi Trek", "latitude": 30.645, "longitude": 79.015, "easting_utm44n": 309783.09, "northing_utm44n": 3391940.04, "coordinate_uncertainty_m": 100.0, "uncertainty_band": "MODERATE_PRECISION (51–100 m)", "location_method": "HIGHWAY_LANDMARK_CORRIDOR_MATCH", "uncertainty_basis": "Geocoded to published SDRF helicopter airlift extraction point on Kedarnath pedestrian trail", "fatalities": 7, "injuries": 32, "households_affected": 15, "damage_description": "Cloudburst induced hill-slope collapse breaching 50m of Kedarnath pilgrim walking route requiring helicopter airlift.", "source_document_title": "SDRF Uttarakhand Search & Rescue Logs and National Press Briefings: Kedarnath Trek Evacuation", "source_document_url_or_identifier": "https://usdma.uk.gov.in/", "source_page_figure_table": "SDRF Situation Bulletin 01/08/2024, Page 1", "evidence_level": "STATE_EMERGENCY_OPERATIONS_BULLETIN", "source_access_status": "VERIFIED_PUBLISHED_SECONDARY_SOURCE", "record_classification": "LITERATURE_CURATED_HISTORICAL_RECORD", "acquisition_method": "MANUAL_RESEARCH_AND_CURATED_EXTRACTION", "extraction_method": "TEXT_TABULAR_EXTRACTION", "duplicate_source_count": 0, "duplicate_refs_json": [ ], "incident_id": "DIS-RDP-2024-001" }, "geometry": { "type": "Point", "coordinates": [ 79.015, 30.645 ] } }
]
}
